*******************************************************************************
 Revised: Dec 10, 2022        Artemis I / Spacecraft (Earth)              -1023
                              https://www.nasa.gov/artemis-1

 BACKGROUND:
  NASA's 26-day unmanned Artemis I mission was a test of integrated systems to:

   - launch Orion atop the SLS rocket 
   - operate the spacecraft in a deep space environment
   - orbit the Moon in a distant retrograde orbit before returning to Earth
   - test Orion's heat shield at 30,000 km/hr (2760 deg. C), and 
   - recover the crew module after reentry, descent, and splashdown

 MAJOR EVENTS:
  Launched November 16 @ 06:47:44 UTC from pad 39B at the Kennedy Space Center. 

  Relative timings below may or may not be be shifted slightly due to launch 
  being delayed 43 minutes.

  launch+00h 18m 09s - Orion deploys solar arrays in Earth orbit
        +00h 52m 56s - Perigee raise maneuver (22 second burn)
        +01h 29m 27s - Trans-lunar injection burn (18m burn)
        +01h 57m 36s - Orion/ICPS separation 
        +01h 58m 58s - Upper stage separation burn

  After Orion separates from the ICPS ("Interim Cryogenic Propulsion Stage"), 
  10 small spacecraft ("CubeSats") will be deployed to perform experiments and
  technology demonstrations. Each CubeSat provides its own propulsion and 
  navigation.

        +07h 47m 31s - Outbound Trajectory Correction-1 burn

   Flight Day  02-05 - Outbound transit 
               06-09 - Transit to Distant Retrograde Orbit (DRO) around Moon,
                         closest lunar approach ~97 km (Day 06)
               10-15 - In DRO
               16-19 - Exit DRO (departure burn on Day 24)
               20-26 - Return transit
                  26 - Entry and splashdown (Pacific)

  Splashdown off Baja California on Dec 11 at 17:40:30 UTC
  Mission elapsed time was 25 days, 10h 54m 50s

 ORION TEST DUMMIES (named by public contest)

  Commander Moonikin Campos - A suited manikin will occupy the commander's seat
   inside Orion to provide data on vibration, acceleration, and radiation that
   crew members may experience in flight.
 
  Helga and Zohar - Two additional seats in Orion will be occupied by manikin 
   torsos manufactured from materials that mimic human bones, soft tissues, and
   organs. The torsos will be fitted with more than 5,600 passive sensors and 
   34 active radiation detectors.

   Zohar will wear a radiation protection vest while Helga will not. The study
   will provide data on radiation levels astronauts may encounter on lunar 
   missions and evaluate the effectiveness of the protective vest.

 SPACECRAFT DETAILS
  SLS                
   * Height                : 98 meters
   * Mass at liftoff       : 2.61 million kg
   * Thrust at liftoff     : 39.1 million Newtons
   * Payload to the moon   : 27,000 kg
 
  Orion module
   * Crew + service mod hgt: 7.92 meters
   * Pressurized volume    : 19.6 m^3 
   * Mass to the Moon      : 24,000 kg
   * Return mass at landing:  8,260 kg
  
 CUBESATS DISPENSED (independent missions and trajectories once released):
  Moon
   Lunar IceCube: Detect all forms of water & other volatiles (IR spectrometer)
   LunaH-Map    : Higher-fidelity mapping of near-surface hydrogen in craters 
                  and other permanently shadowed regions of the lunar South 
                  Pole (neutron spectrometers) [UPDATE: missed maneuver]
   LunIR        : Infrared imaging of the lunar surface [UPDATE: problems]
   OMOTENASHI   : Lunar lander and studying the lunar environment
                  Separate trajectory available in Horizons.
                  [UPDATE: lunar activity cancelled, communications problems]

  Radiation
   CuSP         : Measure particles & magnetic fields (space weather station)
   BioSentinel  : Use single-celled yeast to detect, measure and compare the 
                  impact of deep-space radiation on living organisms over a 
                  long period of time
   EQUULEUS     : Image Earth's plasmasphere for a better understanding of
                  Earth's radiation environment from Earth-Moon LaGrange 2 
                  point ("EM-L2", object 3012 in Horizons)

  Asteroid
   NEA Scout    : Travel by solar sail to asteroid 2020 GE to image and 
                  characterize its surface in September 2024.  Separate 
                  trajectory available in Horizons.
                  [UPDATE: No contact after deployment]

  Technology Demonstrations
   ArgoMoon      : Observing interim cryogenic propulsion stage with advanced 
                   optics and software imaging system
   Team Miles    : Demonstrating propulsion using plasma thrusters, competing 
                   in NASA's Deep Space Derby [UPDATE: no contact after 
                   deployment]

 SPACECRAFT TRAJECTORY:
  Post-launch reconstructed Orion trajectory from NASA/JSC navigation:

  Trajectory name                              Start (TDB)    Stop (TDB)
  ----------------------------------------- ----------------- -----------------
  Orion_OEM_20221117_1600_V0.1              2022-Nov-16 09:03 2022-Nov-17 17:47
  20221118_1920_EPH_OEM.V0.1                2022-Nov-17 17:47 2022-Nov-19 03:51
  20221119_1407_V0.2                        2022-Nov-19 03:51 2022-Nov-19 18:35
  20221120_1342_V0.1                        2022-Nov-19 18:35 2022-Nov-20 13:12
  20221121_1411_V0.1                        2022-Nov-20 13:12 2022-Nov-21 16:58
  20221121_1235_V0.1                        2022-Nov-21 16:58 2022-Nov-23 00:32
  20221124_0150_V0.1                        2022-Nov-23 00:32 2022-Nov-24 01:04
  20221125_0550_V0.1                        2022-Nov-24 01:04 2022-Nov-27 01:11
  20221127_1156_V0.1                        2022-Nov-27 01:11 2022-Nov-28 00:09
  20221129_1115_V0.1                        2022-Nov-28 00:09 2022-Nov-29 15:42
  20221201_0017_V0.1                        2022-Nov-29 15:42 2022-Nov-30 16:32
  20221201_1240_V0.1                        2022-Nov-30 16:32 2022-Dec-02 09:11
  20221203_0000_V0.1                        2022-Dec-02 09:11 2022-Dec-03 14:52
  20221205_0010_V0.1                        2022-Dec-03 14:52 2022-Dec-04 18:45
  20221205_0100_V0.1                        2022-Dec-04 18:45 2022-Dec-05 19:22
  20221206_1330_V0.2                        2022-Dec-05 19:22 2022-Dec-06 17:11
  20221207_1334_V0.1                        2022-Dec-06 17:11 2022-Dec-07 05:11
  20221208_0703_V0.1                        2022-Dec-07 05:11 2022-Dec-08 19:12
  20221208_1345.V0.10                       2022-Dec-08 19:12 2022-Dec-10 01:34
  20221210_2304.V0.1                        2022-Dec-10 01:34 2022-Dec-11 17:19
*******************************************************************************


*******************************************************************************
Ephemeris / WWW_USER Mon Mar  6 11:54:17 2023 Pasadena, USA      / Horizons
*******************************************************************************
Target body name: Artemis I (spacecraft) (-1023)  {source: Artemis_I_merged}
Center body name: Earth (399)                     {source: DE441}
Center-site name: BODY CENTER
*******************************************************************************
Start time      : A.D. 2022-Nov-17 00:00:00.0000 TDB
Stop  time      : A.D. 2022-Dec-11 00:00:00.0000 TDB
Step-size       : 240 minutes
*******************************************************************************
Center geodetic : 0.0, 0.0, 0.0                   {E-lon(deg),Lat(deg),Alt(km)}
Center cylindric: 0.0, 0.0, 0.0                   {E-lon(deg),Dxy(km),Dz(km)}
Center radii    : 6378.137, 6378.137, 6356.752 km {Equator_a, b, pole_c}
Output units    : KM-S
Calendar mode   : Mixed Julian/Gregorian
Output type     : GEOMETRIC cartesian states
Output format   : 1 (position only)
EOP file        : eop.230303.p230526
EOP coverage    : DATA-BASED 1962-JAN-20 TO 2023-MAR-03. PREDICTS-> 2023-MAY-25
Reference frame : Ecliptic of J2000.0
*******************************************************************************
            JDTDB,            Calendar Date (TDB),                      X,                      Y,                      Z,
**************************************************************************************************************************
$$SOE
2459900.500000000, A.D. 2022-Nov-17 00:00:00.0000, -1.512676842376320E+05, -2.928531061853826E+04,  1.064921175916934E+04,
2459900.666666667, A.D. 2022-Nov-17 04:00:00.0000, -1.726066946786489E+05, -4.004263450553019E+04,  1.135834798297782E+04,
2459900.833333333, A.D. 2022-Nov-17 08:00:00.0000, -1.913726062987986E+05, -5.020401840512094E+04,  1.189767740149055E+04,
2459901.000000000, A.D. 2022-Nov-17 12:00:00.0000, -2.080951565414467E+05, -5.982708601686093E+04,  1.230967786464102E+04,
2459901.166666667, A.D. 2022-Nov-17 16:00:00.0000, -2.231239900569891E+05, -6.896067538209487E+04,  1.262012424153274E+04,
2459901.333333333, A.D. 2022-Nov-17 20:00:00.0000, -2.367127960133733E+05, -7.764391681619831E+04,  1.285029828513720E+04,
2459901.500000000, A.D. 2022-Nov-18 00:00:00.0000, -2.490384970029499E+05, -8.590470566272132E+04,  1.301174215536097E+04,
2459901.666666667, A.D. 2022-Nov-18 04:00:00.0000, -2.602432651887886E+05, -9.376965732893972E+04,  1.311504192981784E+04,
2459901.833333333, A.D. 2022-Nov-18 08:00:00.0000, -2.704400183297914E+05, -1.012526767628835E+05,  1.316558135122873E+04,
2459902.000000000, A.D. 2022-Nov-18 12:00:00.0000, -2.797117787061697E+05, -1.083835619737989E+05,  1.317376540122181E+04,
2459902.166666667, A.D. 2022-Nov-18 16:00:00.0000, -2.881332568102328E+05, -1.151705373762798E+05,  1.314264778580881E+04,
2459902.333333333, A.D. 2022-Nov-18 20:00:00.0000, -2.957644062719359E+05, -1.216248942251406E+05,  1.307635752824371E+04,
2459902.500000000, A.D. 2022-Nov-19 00:00:00.0000, -3.026556150746470E+05, -1.277555915775038E+05,  1.297838201190392E+04,
2459902.666666667, A.D. 2022-Nov-19 04:00:00.0000, -3.088522337299623E+05, -1.335618486365386E+05,  1.286205061610552E+04,
2459902.833333333, A.D. 2022-Nov-19 08:00:00.0000, -3.143864211972325E+05, -1.390625952014747E+05,  1.271104976040040E+04,
2459903.000000000, A.D. 2022-Nov-19 12:00:00.0000, -3.192921248357305E+05, -1.442543663094500E+05,  1.253631354931536E+04,
2459903.166666667, A.D. 2022-Nov-19 16:00:00.0000, -3.235972667732544E+05, -1.491381043948680E+05,  1.233998770954539E+04,
2459903.333333333, A.D. 2022-Nov-19 20:00:00.0000, -3.273221768949274E+05, -1.537254409260338E+05,  1.210512233683600E+04,
2459903.500000000, A.D. 2022-Nov-20 00:00:00.0000, -3.304975631098076E+05, -1.579881350182628E+05,  1.186979134007225E+04,
2459903.666666667, A.D. 2022-Nov-20 04:00:00.0000, -3.331399559636562E+05, -1.619307865377251E+05,  1.161887588625660E+04,
2459903.833333333, A.D. 2022-Nov-20 08:00:00.0000, -3.352697640266817E+05, -1.655396223172245E+05,  1.137432284388123E+04,
2459904.000000000, A.D. 2022-Nov-20 12:00:00.0000, -3.369047186993837E+05, -1.688027287614417E+05,  1.110104347610349E+04,
2459904.166666667, A.D. 2022-Nov-20 16:00:00.0000, -3.380554379121787E+05, -1.716897244029957E+05,  1.081486820883010E+04,
2459904.333333333, A.D. 2022-Nov-20 20:00:00.0000, -3.387573708786912E+05, -1.741575098420596E+05,  1.052457144735121E+04,
2459904.500000000, A.D. 2022-Nov-21 00:00:00.0000, -3.390454506033781E+05, -1.761299401103593E+05,  1.023664185967815E+04,
2459904.666666667, A.D. 2022-Nov-21 04:00:00.0000, -3.389754680449503E+05, -1.774555425081365E+05,  9.962603088294047E+03,
2459904.833333333, A.D. 2022-Nov-21 08:00:00.0000, -3.386609443884467E+05, -1.777455796443081E+05,  9.729203960463172E+03,
2459905.000000000, A.D. 2022-Nov-21 12:00:00.0000, -3.383234005393340E+05, -1.749669679655925E+05,  9.649605209850051E+03,
2459905.166666667, A.D. 2022-Nov-21 16:00:00.0000, -3.178657460144259E+05, -1.788399063081524E+05,  7.810869238788713E+03,
2459905.333333333, A.D. 2022-Nov-21 20:00:00.0000, -2.994623783555061E+05, -1.936009629134065E+05,  5.617636594606971E+03,
2459905.500000000, A.D. 2022-Nov-22 00:00:00.0000, -2.829186959795759E+05, -2.082055337504585E+05,  3.567724194123817E+03,
2459905.666666667, A.D. 2022-Nov-22 04:00:00.0000, -2.670590444901200E+05, -2.223734399423554E+05,  1.598826870881763E+03,
2459905.833333333, A.D. 2022-Nov-22 08:00:00.0000, -2.514467417275314E+05, -2.360297531789726E+05, -3.107789374753484E+02,
2459906.000000000, A.D. 2022-Nov-22 12:00:00.0000, -2.358886737333669E+05, -2.491352797612870E+05, -2.173816684416146E+03,
2459906.166666667, A.D. 2022-Nov-22 16:00:00.0000, -2.202873561407191E+05, -2.616619155853608E+05, -3.997331504672969E+03,
2459906.333333333, A.D. 2022-Nov-22 20:00:00.0000, -2.045872095074515E+05, -2.735855683963124E+05, -5.783869711995372E+03,
2459906.500000000, A.D. 2022-Nov-23 00:00:00.0000, -1.887613937098122E+05, -2.848857928674775E+05, -7.534187793929610E+03,
2459906.666666667, A.D. 2022-Nov-23 04:00:00.0000, -1.727930385674323E+05, -2.955498745420384E+05, -9.260473734346771E+03,
2459906.833333333, A.D. 2022-Nov-23 08:00:00.0000, -1.566993643092691E+05, -3.055558342524610E+05, -1.094049084622516E+04,
2459907.000000000, A.D. 2022-Nov-23 12:00:00.0000, -1.404871685101448E+05, -3.148969815879782E+05, -1.258170978074227E+04,
2459907.166666667, A.D. 2022-Nov-23 16:00:00.0000, -1.241743025644276E+05, -3.235660341405174E+05, -1.418265765940645E+04,
2459907.333333333, A.D. 2022-Nov-23 20:00:00.0000, -1.077825638786558E+05, -3.315588022334894E+05, -1.574179907127409E+04,
2459907.500000000, A.D. 2022-Nov-24 00:00:00.0000, -9.133634561494269E+04, -3.388740092637287E+05, -1.725761534744878E+04,
2459907.666666667, A.D. 2022-Nov-24 04:00:00.0000, -7.492345136193519E+04, -3.455051397697123E+05, -1.829716677456372E+04,
2459907.833333333, A.D. 2022-Nov-24 08:00:00.0000, -5.844526751103206E+04, -3.514717991083118E+05, -1.975182044559385E+04,
2459908.000000000, A.D. 2022-Nov-24 12:00:00.0000, -4.199262926226667E+04, -3.567720243785303E+05, -2.116044646693517E+04,
2459908.166666667, A.D. 2022-Nov-24 16:00:00.0000, -2.559238860647099E+04, -3.614137241560523E+05, -2.252180110065122E+04,
2459908.333333333, A.D. 2022-Nov-24 20:00:00.0000, -9.270913093125988E+03, -3.654064256784152E+05, -2.383478716434949E+04,
2459908.500000000, A.D. 2022-Nov-25 00:00:00.0000,  6.946136224110322E+03, -3.687610082857251E+05, -2.509844892430211E+04,
2459908.666666667, A.D. 2022-Nov-25 04:00:00.0000,  2.303395205753123E+04, -3.714894500403943E+05, -2.631196339020561E+04,
2459908.833333333, A.D. 2022-Nov-25 08:00:00.0000,  3.896866800267938E+04, -3.736045906593439E+05, -2.747462907514573E+04,
2459909.000000000, A.D. 2022-Nov-25 12:00:00.0000,  5.472739740445054E+04, -3.751199124080753E+05, -2.858585302360804E+04,
2459909.166666667, A.D. 2022-Nov-25 16:00:00.0000,  7.028823373871669E+04, -3.760493394100618E+05, -2.964513671112902E+04,
2459909.333333333, A.D. 2022-Nov-25 20:00:00.0000,  8.563022050168071E+04, -3.764070548882619E+05, -3.065206126674145E+04,
2459909.500000000, A.D. 2022-Nov-26 00:00:00.0000,  1.003724939553740E+05, -3.769591536785177E+05, -3.162240546983012E+04,
2459909.666666667, A.D. 2022-Nov-26 04:00:00.0000,  1.145290244359361E+05, -3.776526051721072E+05, -3.255451493688559E+04,
2459909.833333333, A.D. 2022-Nov-26 08:00:00.0000,  1.284112336429820E+05, -3.778175166003151E+05, -3.343361056709170E+04,
2459910.000000000, A.D. 2022-Nov-26 12:00:00.0000,  1.420029822570748E+05, -3.774671746916796E+05, -3.425957642572655E+04,
2459910.166666667, A.D. 2022-Nov-26 16:00:00.0000,  1.552888228886610E+05, -3.766137189017488E+05, -3.503226307096097E+04,
2459910.333333333, A.D. 2022-Nov-26 20:00:00.0000,  1.682539191146384E+05, -3.752680204189851E+05, -3.575147436014665E+04,
2459910.500000000, A.D. 2022-Nov-27 00:00:00.0000,  1.808833172766625E+05, -3.734389673246844E+05, -3.641679780470888E+04,
2459910.666666667, A.D. 2022-Nov-27 04:00:00.0000,  1.931619060970667E+05, -3.711346902629885E+05, -3.703376421416750E+04,
2459910.833333333, A.D. 2022-Nov-27 08:00:00.0000,  2.050815228618763E+05, -3.683624053266317E+05, -3.759128416585358E+04,
2459911.000000000, A.D. 2022-Nov-27 12:00:00.0000,  2.166267831784844E+05, -3.651264873306535E+05, -3.809388861135648E+04,
2459911.166666667, A.D. 2022-Nov-27 16:00:00.0000,  2.277860366582378E+05, -3.614299783794978E+05, -3.854105506218903E+04,
2459911.333333333, A.D. 2022-Nov-27 20:00:00.0000,  2.385486431079193E+05, -3.572742501260152E+05, -3.893221302515718E+04,
2459911.500000000, A.D. 2022-Nov-28 00:00:00.0000,  2.489052082915699E+05, -3.526591106532858E+05, -3.926676628398453E+04,
2459911.666666667, A.D. 2022-Nov-28 04:00:00.0000,  2.588442875202014E+05, -3.475841253246258E+05, -3.954709892173932E+04,
2459911.833333333, A.D. 2022-Nov-28 08:00:00.0000,  2.683660015007614E+05, -3.420447933849619E+05, -3.976684933345772E+04,
2459912.000000000, A.D. 2022-Nov-28 12:00:00.0000,  2.774635219595295E+05, -3.360391163399425E+05, -3.992488704097147E+04,
2459912.166666667, A.D. 2022-Nov-28 16:00:00.0000,  2.861344194405960E+05, -3.295630360590979E+05, -4.002708000270900E+04,
2459912.333333333, A.D. 2022-Nov-28 20:00:00.0000,  2.943795817318840E+05, -3.226127997082828E+05, -4.007365226909597E+04,
2459912.500000000, A.D. 2022-Nov-29 00:00:00.0000,  3.021978749679082E+05, -3.151890766207991E+05, -4.005884711398842E+04,
2459912.666666667, A.D. 2022-Nov-29 04:00:00.0000,  3.095928090859602E+05, -3.072904095901439E+05, -3.998540091677506E+04,
2459912.833333333, A.D. 2022-Nov-29 08:00:00.0000,  3.165675369891170E+05, -2.989182008681977E+05, -3.985362325626578E+04,
2459913.000000000, A.D. 2022-Nov-29 12:00:00.0000,  3.231246864314636E+05, -2.900764401919969E+05, -3.966278515749822E+04,
2459913.166666667, A.D. 2022-Nov-29 16:00:00.0000,  3.292695454368449E+05, -2.807677060949173E+05, -3.941578738800902E+04,
2459913.333333333, A.D. 2022-Nov-29 20:00:00.0000,  3.350016252591106E+05, -2.710016317696573E+05, -3.911186226473590E+04,
2459913.500000000, A.D. 2022-Nov-30 00:00:00.0000,  3.403226604559292E+05, -2.607855088721766E+05, -3.875188207539347E+04,
2459913.666666667, A.D. 2022-Nov-30 04:00:00.0000,  3.452320598318917E+05, -2.501287992419703E+05, -3.833647580744188E+04,
2459913.833333333, A.D. 2022-Nov-30 08:00:00.0000,  3.497276461636145E+05, -2.390418870262292E+05, -3.786623514885629E+04,
2459914.000000000, A.D. 2022-Nov-30 12:00:00.0000,  3.538056108983379E+05, -2.275358507123837E+05, -3.734169628454812E+04,
2459914.166666667, A.D. 2022-Nov-30 16:00:00.0000,  3.574605355129523E+05, -2.156222859540988E+05, -3.676332935480172E+04,
2459914.333333333, A.D. 2022-Nov-30 20:00:00.0000,  3.606863633523157E+05, -2.033119855021618E+05, -3.612967650743367E+04,
2459914.500000000, A.D. 2022-Dec-01 00:00:00.0000,  3.635094173190418E+05, -1.905276663392724E+05, -3.544771170020314E+04,
2459914.666666667, A.D. 2022-Dec-01 04:00:00.0000,  3.659179652513770E+05, -1.772870855625300E+05, -3.471600966047826E+04,
2459914.833333333, A.D. 2022-Dec-01 08:00:00.0000,  3.678669856000195E+05, -1.636883112693296E+05, -3.393158059707096E+04,
2459915.000000000, A.D. 2022-Dec-01 12:00:00.0000,  3.693415647748913E+05, -1.497498867853546E+05, -3.309650902402934E+04,
2459915.166666667, A.D. 2022-Dec-01 16:00:00.0000,  3.703338189593406E+05, -1.354750238517126E+05, -3.220670957025381E+04,
2459915.333333333, A.D. 2022-Dec-01 20:00:00.0000,  3.708273592528842E+05, -1.208827015318919E+05, -3.126444572934022E+04,
2459915.500000000, A.D. 2022-Dec-02 00:00:00.0000,  3.718376323057627E+05, -1.060287641680740E+05, -3.024260692321078E+04,
2459915.666666667, A.D. 2022-Dec-02 04:00:00.0000,  3.732837524270513E+05, -9.092703333970207E+04, -2.914348244291706E+04,
2459915.833333333, A.D. 2022-Dec-02 08:00:00.0000,  3.741901675798707E+05, -7.555699931237785E+04, -2.799345241465034E+04,
2459916.000000000, A.D. 2022-Dec-02 12:00:00.0000,  3.745445850948170E+05, -5.993168544500328E+04, -2.679510348926036E+04,
2459916.166666667, A.D. 2022-Dec-02 16:00:00.0000,  3.743353606987644E+05, -4.407989517167828E+04, -2.554674714153827E+04,
2459916.333333333, A.D. 2022-Dec-02 20:00:00.0000,  3.735517450362321E+05, -2.801515238865530E+04, -2.425082794729385E+04,
2459916.500000000, A.D. 2022-Dec-03 00:00:00.0000,  3.721837139795778E+05, -1.175991527783230E+04, -2.291256986750703E+04,
2459916.666666667, A.D. 2022-Dec-03 04:00:00.0000,  3.702233982274450E+05,  4.674019661904415E+03, -2.152424652235839E+04,
2459916.833333333, A.D. 2022-Dec-03 08:00:00.0000,  3.676631690033193E+05,  2.126456792783885E+04, -2.009275492701870E+04,
2459917.000000000, A.D. 2022-Dec-03 12:00:00.0000,  3.644981284832176E+05,  3.799587758288595E+04, -1.861872818555653E+04,
2459917.166666667, A.D. 2022-Dec-03 16:00:00.0000,  3.607235437233489E+05,  5.484973950883304E+04, -1.711547546284104E+04,
2459917.333333333, A.D. 2022-Dec-03 20:00:00.0000,  3.563399012202225E+05,  7.180845009040801E+04, -1.556743973174976E+04,
2459917.500000000, A.D. 2022-Dec-04 00:00:00.0000,  3.513485419153083E+05,  8.886213008553720E+04, -1.398434695527469E+04,
2459917.666666667, A.D. 2022-Dec-04 04:00:00.0000,  3.457546001391298E+05,  1.060029042413305E+05, -1.236874231601114E+04,
2459917.833333333, A.D. 2022-Dec-04 08:00:00.0000,  3.395671193498626E+05,  1.232290518964232E+05, -1.072344628463913E+04,
2459918.000000000, A.D. 2022-Dec-04 12:00:00.0000,  3.327986412754304E+05,  1.405525090348595E+05, -9.064840057888978E+03,
2459918.166666667, A.D. 2022-Dec-04 16:00:00.0000,  3.254716017316730E+05,  1.579857776358489E+05, -7.371728099122163E+03,
2459918.333333333, A.D. 2022-Dec-04 20:00:00.0000,  3.176126916876894E+05,  1.755711250360733E+05, -5.647332961682863E+03,
2459918.500000000, A.D. 2022-Dec-05 00:00:00.0000,  3.092643072938957E+05,  1.933895113320580E+05, -3.917905864314103E+03,
2459918.666666667, A.D. 2022-Dec-05 04:00:00.0000,  3.004944760378901E+05,  2.115824066143338E+05, -2.192816963770427E+03,
2459918.833333333, A.D. 2022-Dec-05 08:00:00.0000,  2.914238919249359E+05,  2.304338103667198E+05, -4.798453025491181E+02,
2459919.000000000, A.D. 2022-Dec-05 12:00:00.0000,  2.823699647596854E+05,  2.506011525308645E+05,  1.148791968076403E+03,
2459919.166666667, A.D. 2022-Dec-05 16:00:00.0000,  2.754679134388018E+05,  2.747561705570628E+05,  2.159035750467243E+03,
2459919.333333333, A.D. 2022-Dec-05 20:00:00.0000,  2.844137564268609E+05,  2.795399748278917E+05, -2.318488860913174E+03,
2459919.500000000, A.D. 2022-Dec-06 00:00:00.0000,  2.876805572154892E+05,  2.788399899937560E+05, -5.404930543858078E+03,
2459919.666666667, A.D. 2022-Dec-06 04:00:00.0000,  2.897815336251620E+05,  2.782588642667324E+05, -8.232854552489414E+03,
2459919.833333333, A.D. 2022-Dec-06 08:00:00.0000,  2.911901363167930E+05,  2.775386391010839E+05, -1.092407585903518E+04,
2459920.000000000, A.D. 2022-Dec-06 12:00:00.0000,  2.920425044633515E+05,  2.765976390754405E+05, -1.357384976600093E+04,
2459920.166666667, A.D. 2022-Dec-06 16:00:00.0000,  2.924077733391374E+05,  2.753899686751123E+05, -1.616220583213474E+04,
2459920.333333333, A.D. 2022-Dec-06 20:00:00.0000,  2.923222217085455E+05,  2.738864468682445E+05, -1.869228467439786E+04,
2459920.500000000, A.D. 2022-Dec-07 00:00:00.0000,  2.917943130397879E+05,  2.720812647727985E+05, -2.118871201640066E+04,
2459920.666666667, A.D. 2022-Dec-07 04:00:00.0000,  2.908385439493388E+05,  2.699585849777285E+05, -2.364276957710687E+04,
2459920.833333333, A.D. 2022-Dec-07 08:00:00.0000,  2.894574930742237E+05,  2.675107440356037E+05, -2.605752043476223E+04,
2459921.000000000, A.D. 2022-Dec-07 12:00:00.0000,  2.876562342480263E+05,  2.647262743610686E+05, -2.842493571989333E+04,
2459921.166666667, A.D. 2022-Dec-07 16:00:00.0000,  2.854307873214568E+05,  2.616007893180256E+05, -3.074328597523134E+04,
2459921.333333333, A.D. 2022-Dec-07 20:00:00.0000,  2.827784842114739E+05,  2.581220967819301E+05, -3.301159576604959E+04,
2459921.500000000, A.D. 2022-Dec-08 00:00:00.0000,  2.796930334860932E+05,  2.542815935714439E+05, -3.522572373422537E+04,
2459921.666666667, A.D. 2022-Dec-08 04:00:00.0000,  2.761662901802083E+05,  2.500691985379110E+05, -3.738127822039524E+04,
2459921.833333333, A.D. 2022-Dec-08 08:00:00.0000,  2.721991213863146E+05,  2.454582207684616E+05, -3.945843787763099E+04,
2459922.000000000, A.D. 2022-Dec-08 12:00:00.0000,  2.677584839098329E+05,  2.404643952521929E+05, -4.147930280270470E+04,
2459922.166666667, A.D. 2022-Dec-08 16:00:00.0000,  2.628388016015682E+05,  2.350607344064819E+05, -4.342417287211149E+04,
2459922.333333333, A.D. 2022-Dec-08 20:00:00.0000,  2.574197238320170E+05,  2.292334575975861E+05, -4.528968841262026E+04,
2459922.500000000, A.D. 2022-Dec-09 00:00:00.0000,  2.514852445443874E+05,  2.229597104841938E+05, -4.705882764445059E+04,
2459922.666666667, A.D. 2022-Dec-09 04:00:00.0000,  2.450085977620127E+05,  2.162204304252240E+05, -4.872431176784565E+04,
2459922.833333333, A.D. 2022-Dec-09 08:00:00.0000,  2.379611928324096E+05,  2.089899426428885E+05, -5.027626482316827E+04,
2459923.000000000, A.D. 2022-Dec-09 12:00:00.0000,  2.303085056708857E+05,  2.012398922783391E+05, -5.169943540978510E+04,
2459923.166666667, A.D. 2022-Dec-09 16:00:00.0000,  2.220097262546352E+05,  1.929361638038575E+05, -5.297674852441726E+04,
2459923.333333333, A.D. 2022-Dec-09 20:00:00.0000,  2.130157718951895E+05,  1.840381127342831E+05, -5.408739830128653E+04,
2459923.500000000, A.D. 2022-Dec-10 00:00:00.0000,  2.032669197099696E+05,  1.744967130801418E+05, -5.500560214582164E+04,
2459923.666666667, A.D. 2022-Dec-10 04:00:00.0000,  1.926858811620632E+05,  1.642501260539029E+05, -5.569693333163003E+04,
2459923.833333333, A.D. 2022-Dec-10 08:00:00.0000,  1.811860248754511E+05,  1.532263681208004E+05, -5.612115409081786E+04,
2459924.000000000, A.D. 2022-Dec-10 12:00:00.0000,  1.686447530087118E+05,  1.413295407437702E+05, -5.622241741087404E+04,
2459924.166666667, A.D. 2022-Dec-10 16:00:00.0000,  1.549054271656833E+05,  1.284319229696785E+05, -5.592341971086457E+04,
2459924.333333333, A.D. 2022-Dec-10 20:00:00.0000,  1.397486368116325E+05,  1.143662503144168E+05, -5.510896316879678E+04,
2459924.500000000, A.D. 2022-Dec-11 00:00:00.0000,  1.228684654158028E+05,  9.889728531927858E+04, -5.362128063321762E+04,
$$EOE
**************************************************************************************************************************
 
TIME

  Barycentric Dynamical Time ("TDB" or T_eph) output was requested. This
continuous coordinate time is equivalent to the relativistic proper time
of a clock at rest in a reference frame co-moving with the solar system
barycenter but outside the system's gravity well. It is the independent
variable in the solar system relativistic equations of motion.

  TDB runs at a uniform rate of one SI second per second and is independent
of irregularities in Earth's rotation.
 
CALENDAR SYSTEM

  Mixed calendar mode was active such that calendar dates after AD 1582-Oct-15
(if any) are in the modern Gregorian system. Dates prior to 1582-Oct-5 (if any)
are in the Julian calendar system, which is automatically extended for dates
prior to its adoption on 45-Jan-1 BC.  The Julian calendar is useful for
matching historical dates. The Gregorian calendar more accurately corresponds
to the Earth's orbital motion and seasons. A "Gregorian-only" calendar mode is
available if such physical events are the primary interest.

REFERENCE FRAME AND COORDINATES

  Ecliptic at the standard reference epoch

    Reference epoch: J2000.0
    X-Y plane: adopted Earth orbital plane at the reference epoch
               Note: IAU76 obliquity of 84381.448 arcseconds wrt ICRF X-Y plane
    X-axis   : ICRF
    Z-axis   : perpendicular to the X-Y plane in the directional (+ or -) sense
               of Earth's north pole at the reference epoch.

  Symbol meaning:

    JDTDB    Julian Day Number, Barycentric Dynamical Time
      X      X-component of position vector (km)
      Y      Y-component of position vector (km)
      Z      Z-component of position vector (km)

ABERRATIONS AND CORRECTIONS

 Geometric state vectors have NO corrections or aberrations applied.

Computations by ...

    Solar System Dynamics Group, Horizons On-Line Ephemeris System
    4800 Oak Grove Drive, Jet Propulsion Laboratory
    Pasadena, CA  91109   USA

    General site: https://ssd.jpl.nasa.gov/
    Mailing list: https://ssd.jpl.nasa.gov/email_list.html
    System news : https://ssd.jpl.nasa.gov/horizons/news.html
    User Guide  : https://ssd.jpl.nasa.gov/horizons/manual.html
    Connect     : browser        https://ssd.jpl.nasa.gov/horizons/app.html#/x
                  API            https://ssd-api.jpl.nasa.gov/doc/horizons.html
                  command-line   telnet ssd.jpl.nasa.gov 6775
                  e-mail/batch   https://ssd.jpl.nasa.gov/ftp/ssd/hrzn_batch.txt
                  scripts        https://ssd.jpl.nasa.gov/ftp/ssd/SCRIPTS
    Author      : Jon.D.Giorgini@jpl.nasa.gov
*******************************************************************************
